{
  "type": "FeatureCollection",
  "features": [
    {
      "type": "Feature",
      "properties": {
        "norad_id": 54741,
        "name": "GALAXY 35 (G-35)",
        "group": "intelsat",
        "lat": -0.015102710433048968,
        "lon": -110.61800892593807,
        "alt_km": 35777.63622713318,
        "timestamp": "2025-12-21T16:47:54.397024+00:00",
        "meta_object_name": "GALAXY 35 (G-35)",
        "meta_object_id": "2022-170A",
        "meta_epoch": "2025-12-21T11:05:40.979040",
        "meta_mean_motion": 1.00271983,
        "meta_eccentricity": 0.0002167,
        "meta_inclination": 0.0147,
        "meta_ra_of_asc_node": 67.594,
        "meta_arg_of_pericenter": 205.5919,
        "meta_mean_anomaly": 250.424,
        "meta_ephemeris_type": 0,
        "meta_classification_type": "U",
        "meta_norad_cat_id": 54741,
        "meta_element_set_no": 999,
        "meta_rev_at_epoch": 1111,
        "meta_bstar": 0,
        "meta_mean_motion_dot": -1.4e-06,
        "meta_mean_motion_ddot": 0,
        "tle_line1": "1 54741U 22170A   25355.46227985 -.00000140  00000+0  00000+0 0  9990",
        "tle_line2": "2 54741   0.0147  67.5940 0002167 205.5919 250.4240  1.00271983 11115"
      },
      "geometry": {
        "type": "Point",
        "coordinates": [
          -110.61800892593807,
          -0.015102710433048968
        ]
      }
    },
    {
      "type": "Feature",
      "properties": {
        "norad_id": 54742,
        "name": "GALAXY 36 (G-36)",
        "group": "intelsat",
        "lat": -0.031642345906429184,
        "lon": -106.52703802241564,
        "alt_km": 35786.9884801908,
        "timestamp": "2025-12-21T16:47:54.397036+00:00",
        "meta_object_name": "GALAXY 36 (G-36)",
        "meta_object_id": "2022-170B",
        "meta_epoch": "2025-12-21T11:03:49.139424",
        "meta_mean_motion": 1.00269074,
        "meta_eccentricity": 4.26e-05,
        "meta_inclination": 0.0152,
        "meta_ra_of_asc_node": 31.0122,
        "meta_arg_of_pericenter": 316.6289,
        "meta_mean_anomaly": 179.5898,
        "meta_ephemeris_type": 0,
        "meta_classification_type": "U",
        "meta_norad_cat_id": 54742,
        "meta_element_set_no": 999,
        "meta_rev_at_epoch": 1099,
        "meta_bstar": 0,
        "meta_mean_motion_dot": 0,
        "meta_mean_motion_ddot": 0,
        "tle_line1": "1 54742U 22170B   25355.46098541  .00000000  00000+0  00000+0 0  9999",
        "tle_line2": "2 54742   0.0152  31.0122 0000426 316.6289 179.5898  1.00269074 10993"
      },
      "geometry": {
        "type": "Point",
        "coordinates": [
          -106.52703802241564,
          -0.031642345906429184
        ]
      }
    },
    {
      "type": "Feature",
      "properties": {
        "norad_id": 57493,
        "name": "GALAXY 37 (G-37)",
        "group": "intelsat",
        "lat": -0.019703700128710738,
        "lon": -144.54197554339288,
        "alt_km": 35781.980726500246,
        "timestamp": "2025-12-21T16:47:54.397047+00:00",
        "meta_object_name": "GALAXY 37 (G-37)",
        "meta_object_id": "2023-112A",
        "meta_epoch": "2025-12-21T10:52:57.679104",
        "meta_mean_motion": 1.00271091,
        "meta_eccentricity": 0.0001942,
        "meta_inclination": 0.0141,
        "meta_ra_of_asc_node": 9.7662,
        "meta_arg_of_pericenter": 264.379,
        "meta_mean_anomaly": 212.3614,
        "meta_ephemeris_type": 0,
        "meta_classification_type": "U",
        "meta_norad_cat_id": 57493,
        "meta_element_set_no": 999,
        "meta_rev_at_epoch": 876,
        "meta_bstar": 0,
        "meta_mean_motion_dot": 7.1e-07,
        "meta_mean_motion_ddot": 0,
        "tle_line1": "1 57493U 23112A   25355.45344536  .00000071  00000+0  00000+0 0  9997",
        "tle_line2": "2 57493   0.0141   9.7662 0001942 264.3790 212.3614  1.00271091  8764"
      },
      "geometry": {
        "type": "Point",
        "coordinates": [
          -144.54197554339288,
          -0.019703700128710738
        ]
      }
    }
  ]
}